NORAD_CAT_ID,OBJECT_NAME,OBJECT_TYPE,EPOCH,MEAN_MOTION,ECCENTRICITY,INCLINATION,RA_OF_ASC_NODE,ARG_OF_PERICENTER,MEAN_ANOMALY,BSTAR,MEAN_MOTION_DOT,MEAN_MOTION_DDOT,TLE_LINE0,TLE_LINE1,TLE_LINE2,SEMIMAJOR_AXIS,PERIOD,APOGEE,PERIGEE,DECAYED
52471.0,STARLINK-3862,PAYLOAD,2024-05-28 05:50:53,15.08813647,0.0001512,53.2179,99.0971,96.4229,263.6935,0.00040707,6.192e-05,0.0,0 STARLINK-3862,1 52471U 22049W   24149.24366966  .00006192  00000-0  40707-3 0  9997,2 52471  53.2179  99.0971 0001512  96.4229 263.6935 15.08813647114210,6917.961,95.439,540.872,538.78,0.0
52471.0,STARLINK-3862,PAYLOAD,2024-05-29 04:06:16,15.08840276,0.0001485,53.2174,94.9353,75.9406,284.1751,3.1334e-05,2.11e-06,0.0,0 STARLINK-3862,1 52471U 22049W   24150.17102706  .00000211  00000-0  31334-4 0  9994,2 52471  53.2174  94.9353 0001485  75.9406 284.1751 15.08840276114358,6917.88,95.438,540.772,538.717,0.0
52471.0,STARLINK-3862,PAYLOAD,2024-05-29 20:00:08,15.08838891,0.0001667,53.2179,91.9623,76.3038,283.814,4.179e-05,3.77e-06,0.0,0 STARLINK-3862,1 52471U 22049W   24150.83342920  .00000377  00000-0  41790-4 0  9991,2 52471  53.2179  91.9623 0001667  76.3038 283.8140 15.08838891114299,6917.884,95.438,540.902,538.596,0.0
52471.0,STARLINK-3862,PAYLOAD,2024-05-30 02:21:40,15.0884059,0.0001714,53.2181,90.7732,74.8527,285.2655,5.6085e-05,6.05e-06,0.0,0 STARLINK-3862,1 52471U 22049W   24151.09838849  .00000605  00000-0  56085-4 0  9997,2 52471  53.2181  90.7732 0001714  74.8527 285.2655 15.08840590114330,6917.879,95.438,540.929,538.558,0.0
52471.0,STARLINK-3862,PAYLOAD,2024-05-31 02:12:27,15.08849022,0.000177,53.2189,86.3137,75.5268,284.592,0.00010645,1.407e-05,0.0,0 STARLINK-3862,1 52471U 22049W   24152.09197962  .00001407  00000-0  10645-3 0  9994,2 52471  53.2189  86.3137 0001770  75.5268 284.5920 15.08849022114640,6917.853,95.437,540.942,538.493,0.0
52471.0,STARLINK-3862,PAYLOAD,2024-05-31 05:23:12,15.08851623,0.0001657,53.2179,85.7161,84.6843,275.4338,0.00013072,1.794e-05,0.0,0 STARLINK-3862,1 52471U 22049W   24152.22445546  .00001794  00000-0  13072-3 0  9999,2 52471  53.2179  85.7161 0001657  84.6843 275.4338 15.08851623114500,6917.845,95.437,540.856,538.564,0.0
52471.0,STARLINK-3862,PAYLOAD,2024-05-31 22:52:28,15.08840095,0.0001814,53.2164,82.4431,98.5891,261.5307,2.0179e-05,3.3e-07,0.0,0 STARLINK-3862,1 52471U 22049W   24152.95310329  .00000033  00000-0  20179-4 0  9991,2 52471  53.2164  82.4431 0001814  98.5891 261.5307 15.08840095114615,6917.88,95.438,541.0,538.49,0.0
52471.0,STARLINK-3862,PAYLOAD,2024-06-01 02:03:14,15.08844401,0.0001363,53.2185,81.8506,93.4793,266.6355,2.2066e-05,6.3e-07,0.0,0 STARLINK-3862,1 52471U 22049W   24153.08558073  .00000063  00000-0  22066-4 0  9996,2 52471  53.2185  81.8506 0001363  93.4793 266.6355 15.08844401114791,6917.867,95.437,540.675,538.789,0.0
52471.0,STARLINK-3862,PAYLOAD,2024-06-01 19:32:29,15.08837643,0.0001612,53.218,78.5806,91.8178,268.2999,-0.00014882,-2.656e-05,0.0,0 STARLINK-3862,1 52471U 22049W   24153.81423204 -.00002656  00000-0 -14882-3 0  9992,2 52471  53.2180  78.5806 0001612  91.8178 268.2999 15.08837643114903,6917.888,95.438,540.868,538.637,0.0
52471.0,STARLINK-3862,PAYLOAD,2024-06-02 11:26:20,15.08841419,0.0001389,53.219,75.6061,91.5551,268.56,-5.4776e-05,-1.16e-05,0.0,0 STARLINK-3862,1 52471U 22049W   24154.47662663 -.00001160  00000-0 -54776-4 0  9995,2 52471  53.2190  75.6061 0001389  91.5551 268.5600 15.08841419115008,6917.876,95.437,540.702,538.78,0.0
52471.0,STARLINK-3862,PAYLOAD,2024-06-02 19:23:16,15.08833325,0.00013,53.2196,74.1224,103.1015,257.0122,-3.616e-06,-3.45e-06,0.0,0 STARLINK-3862,1 52471U 22049W   24154.80783277 -.00000345  00000-0 -36160-5 0  9999,2 52471  53.2196  74.1224 0001300 103.1015 257.0122 15.08833325115051,6917.901,95.438,540.665,538.866,0.0
52471.0,STARLINK-3862,PAYLOAD,2024-06-03 11:17:07,15.08841979,0.0001341,53.2204,71.1492,99.8742,260.2401,6.122e-06,-1.9e-06,0.0,0 STARLINK-3862,1 52471U 22049W   24155.47022918 -.00000190  00000-0  61220-5 0  9993,2 52471  53.2204  71.1492 0001341  99.8742 260.2401 15.08841979115159,6917.874,95.437,540.667,538.812,0.0
52471.0,STARLINK-3862,PAYLOAD,2024-06-04 11:07:54,15.08842271,0.0001534,53.2197,66.687,86.2664,273.8504,9.9905e-05,1.302e-05,0.0,0 STARLINK-3862,1 52471U 22049W   24156.46383067  .00001302  00000-0  99905-4 0  9993,2 52471  53.2197  66.6870 0001534  86.2664 273.8504 15.08842271115145,6917.873,95.437,540.8,538.677,0.0
52471.0,STARLINK-3862,PAYLOAD,2024-06-05 03:01:46,15.0884618,0.0001225,53.2203,63.7108,69.8313,290.2811,7.0965e-05,8.42e-06,0.0,0 STARLINK-3862,1 52471U 22049W   24157.12622804  .00000842  00000-0  70965-4 0  9995,2 52471  53.2203  63.7108 0001225  69.8313 290.2811 15.08846180115406,6917.861,95.437,540.574,538.879,0.0
52471.0,STARLINK-3862,PAYLOAD,2024-06-05 10:58:42,15.08836716,0.000145,53.2187,62.2263,75.6537,284.4616,-8.2398e-06,-4.19e-06,0.0,0 STARLINK-3862,1 52471U 22049W   24157.45743658 -.00000419  00000-0 -82398-5 0  9998,2 52471  53.2187  62.2263 0001450  75.6537 284.4616 15.08836716115453,6917.89,95.438,540.759,538.752,0.0
52471.0,STARLINK-3862,PAYLOAD,2024-06-06 10:49:29,15.08845169,0.0001429,53.2187,57.7665,73.4622,286.6527,4.9154e-05,4.95e-06,0.0,0 STARLINK-3862,1 52471U 22049W   24158.45103175  .00000495  00000-0  49154-4 0  9997,2 52471  53.2187  57.7665 0001429  73.4622 286.6527 15.08845169115609,6917.865,95.437,540.718,538.741,0.0
52471.0,STARLINK-3862,PAYLOAD,2024-06-06 17:11:01,15.08841022,0.0001112,53.2205,56.5745,86.4484,273.6636,3.351e-05,2.46e-06,0.0,0 STARLINK-3862,1 52471U 22049W   24158.71599361  .00000246  00000-0  33510-4 0  9995,2 52471  53.2205  56.5745 0001112  86.4484 273.6636 15.08841022115640,6917.877,95.437,540.512,538.973,0.0
52471.0,STARLINK-3862,PAYLOAD,2024-06-07 23:23:21,15.08836229,0.0001266,53.2201,50.9252,90.5421,269.5716,9.4895e-05,1.223e-05,0.0,0 STARLINK-3862,1 52471U 22049W   24159.97455337  .00001223  00000-0  94895-4 0  9997,2 52471  53.2201  50.9252 0001266  90.5421 269.5716 15.08836229115673,6917.892,95.438,540.633,538.881,0.0
52471.0,STARLINK-3862,PAYLOAD,2024-06-08 02:34:07,15.08840129,0.0001139,53.2192,50.3305,97.6256,262.4865,4.0391e-05,3.55e-06,0.0,0 STARLINK-3862,1 52471U 22049W   24160.10703240  .00000355  00000-0  40391-4 0  9990,2 52471  53.2192  50.3305 0001139  97.6256 262.4865 15.08840129115859,6917.88,95.438,540.533,538.957,0.0
52471.0,STARLINK-3862,PAYLOAD,2024-06-08 23:14:08,15.08840354,0.0001405,53.2177,46.4651,82.7196,277.3955,-6.4494e-05,-1.314e-05,0.0,0 STARLINK-3862,1 52471U 22049W   24160.96815687 -.00001314  00000-0 -64494-4 0  9991,2 52471  53.2177  46.4651 0001405  82.7196 277.3955 15.08840354115828,6917.879,95.438,540.716,538.772,0.0
52471.0,STARLINK-3862,PAYLOAD,2024-06-09 00:49:31,15.08844875,0.0001273,53.2191,46.1689,82.4582,277.6555,-6.8977e-05,-1.386e-05,0.0,0 STARLINK-3862,1 52471U 22049W   24161.03439390 -.00001386  00000-0 -68977-4 0  9992,2 52471  53.2191  46.1689 0001273  82.4582 277.6555 15.08844875115833,6917.865,95.437,540.611,538.85,0.0
52471.0,STARLINK-3862,PAYLOAD,2024-06-09 21:29:32,15.0884128,0.0001897,53.2192,42.3037,88.1878,271.9331,-7.7407e-05,-1.52e-05,0.0,0 STARLINK-3862,1 52471U 22049W   24161.89552020 -.00001520  00000-0 -77407-4 0  9990,2 52471  53.2192  42.3037 0001897  88.1878 271.9331 15.08841280116121,6917.876,95.437,541.054,538.429,0.0
52471.0,STARLINK-3862,PAYLOAD,2024-06-09 23:04:56,15.08834749,0.0001412,53.2192,42.0054,90.8489,269.2665,1.7996e-05,-2e-08,0.0,0 STARLINK-3862,1 52471U 22049W   24161.96176125 -.00000002  00000-0  17996-4 0  9996,2 52471  53.2192  42.0054 0001412  90.8489 269.2665 15.08834749115972,6917.896,95.438,540.738,538.785,0.0
52471.0,STARLINK-3862,PAYLOAD,2024-06-10 02:15:42,15.0883951,0.0001216,53.219,41.4099,89.2659,270.8472,1.6065e-05,-3.2e-07,0.0,0 STARLINK-3862,1 52471U 22049W   24162.09423893 -.00000032  00000-0  16065-4 0  9997,2 52471  53.2190  41.4099 0001216  89.2659 270.8472 15.08839510115992,6917.882,95.438,540.588,538.906,0.0
52471.0,STARLINK-3862,PAYLOAD,2024-06-10 22:55:42,15.08844634,0.0001091,53.2174,37.5462,100.0525,260.0591,5.9501e-05,6.59e-06,0.0,0 STARLINK-3862,1 52471U 22049W   24162.95535624  .00000659  00000-0  59501-4 0  9994,2 52471  53.2174  37.5462 0001091 100.0525 260.0591 15.08844634116121,6917.866,95.437,540.486,538.976,0.0
52471.0,STARLINK-3862,PAYLOAD,2024-06-11 00:31:05,15.08846692,0.0001142,53.2179,37.2483,97.2145,262.8977,8.4058e-05,1.05e-05,0.0,0 STARLINK-3862,1 52471U 22049W   24163.02159447  .00001050  00000-0  84058-4 0  9999,2 52471  53.2179  37.2483 0001142  97.2145 262.8977 15.08846692116290,6917.86,95.437,540.515,538.935,0.0
52471.0,STARLINK-3862,PAYLOAD,2024-06-11 08:28:01,15.08847612,0.0001146,53.2183,35.7622,92.4458,267.6665,0.000101,1.32e-05,0.0,0 STARLINK-3862,1 52471U 22049W   24163.35279308  .00001320  00000-0  10100-3 0  9990,2 52471  53.2183  35.7622 0001146  92.4458 267.6665 15.08847612116189,6917.857,95.437,540.515,538.929,0.0
52471.0,STARLINK-3862,PAYLOAD,2024-06-12 00:21:52,15.08848299,0.0001111,53.2185,32.7869,105.9032,254.2082,0.00012535,1.708e-05,0.0,0 STARLINK-3862,1 52471U 22049W   24164.01519255  .00001708  00000-0  12535-3 0  9996,2 52471  53.2185  32.7869 0001111 105.9032 254.2082 15.08848299116289,6917.855,95.437,540.489,538.951,0.0
52471.0,STARLINK-3862,PAYLOAD,2024-06-12 08:18:49,15.08837159,0.0001518,53.2185,31.3008,88.1763,271.9403,3.3999e-06,-2.34e-06,0.0,0 STARLINK-3862,1 52471U 22049W   24164.34640473 -.00000234  00000-0  33999-5 0  9992,2 52471  53.2185  31.3008 0001518  88.1763 271.9403 15.08837159116492,6917.889,95.438,540.804,538.704,0.0
52471.0,STARLINK-3862,PAYLOAD,2024-06-12 21:01:54,15.08840627,0.0001353,53.2184,28.9218,94.9914,265.1233,-4.5775e-05,-1.016e-05,0.0,0 STARLINK-3862,1 52471U 22049W   24164.87632497 -.00001016  00000-0 -45775-4 0  9991,2 52471  53.2184  28.9218 0001353  94.9914 265.1233 15.08840627116418,6917.878,95.438,540.679,538.807,0.0
